[{"OBJECT_NAME":"KOSEN-1","OBJECT_ID":"2021-102H","EPOCH":"2026-03-09T22:29:54.100608","MEAN_MOTION":15.25323573,"ECCENTRICITY":0.00138659,"INCLINATION":97.3334,"RA_OF_ASC_NODE":113.0569,"ARG_OF_PERICENTER":191.9191,"MEAN_ANOMALY":168.1721,"EPHEMERIS_TYPE":0,"CLASSIFICATION_TYPE":"U","NORAD_CAT_ID":49402,"ELEMENT_SET_NO":999,"REV_AT_EPOCH":23888,"BSTAR":0.00040411561,"MEAN_MOTION_DOT":0.00010142,"MEAN_MOTION_DDOT":0},{"OBJECT_NAME":"STARLINK-36201","OBJECT_ID":"2025-303B","EPOCH":"2026-03-09T01:30:50.944032","MEAN_MOTION":15.2758111,"ECCENTRICITY":0.00026172,"INCLINATION":43.0035,"RA_OF_ASC_NODE":313.8854,"ARG_OF_PERICENTER":255.6496,"MEAN_ANOMALY":104.4066,"EPHEMERIS_TYPE":0,"CLASSIFICATION_TYPE":"U","NORAD_CAT_ID":67164,"ELEMENT_SET_NO":999,"REV_AT_EPOCH":1264,"BSTAR":0.0016085417,"MEAN_MOTION_DOT":0.00044271,"MEAN_MOTION_DDOT":0}]
